STARLINK-35661          
1 66387U 25257H   25337.16668980 -.02071590  00000+0 -50032-1 0  9991
2 66387  53.1594 309.6212 0001121  88.6668 334.0602 15.44211001  4954
STARLINK-35647          
1 66388U 25257J   25337.16668980 -.02076863  00000+0 -45463-1 0  9992
2 66388  53.1590 309.6003 0001027  85.5140 347.4982 15.47060620  4956
STARLINK-35694          
1 66389U 25257K   25337.15290475  .00038890  00000+0  70440-3 0  9991
2 66389  53.1590 309.6562 0001704  84.6284 275.4919 15.49284998  4899
STARLINK-35665          
1 66390U 25257L   25337.14673773  .00105316  00000+0  18740-2 0  9990
2 66390  53.1588 309.6142 0001364  93.2305 266.8860 15.49342842  4997
STARLINK-35656          
1 66391U 25257M   25337.16668980  .00028821  00000+0  72848-3 0  9992
2 66391  53.1592 309.4906 0001540  68.1110  52.6811 15.39591037  5056
STARLINK-35671          
1 66392U 25257N   25337.16668980 -.02079090  00000+0 -46326-1 0  9991
2 66392  53.1591 309.5898 0001073  86.9853 350.7579 15.46556095  4954
STARLINK-35652          
1 66393U 25257P   25337.15257652  .00053537  00000+0  96331-3 0  9998
2 66393  53.1590 309.6544 0001591 102.8578 257.2609 15.49331008  4896
STARLINK-35672          
1 66394U 25257Q   25337.15189012  .00096155  00000+0  17137-2 0  9992
2 66394  53.1589 309.6496 0001486  92.0913 268.0267 15.49341907  4896
STARLINK-35681          
1 66395U 25257R   25337.15154575  .00051599  00000+0  92905-3 0  9999
2 66395  53.1589 309.6475 0001517 102.6084 257.5095 15.49328325  4820
STARLINK-35669          
1 66396U 25257S   25337.15120119  .00049392  00000+0  88926-3 0  9993
2 66396  53.1587 309.6446 0001476  99.5284 260.5892 15.49348555  4890
STARLINK-35510          
1 66397U 25257T   25337.15085956  .00091320  00000+0  16293-2 0  9998
2 66397  53.1586 309.6426 0001238  90.4961 269.6190 15.49336637  4895
STARLINK-35642          
1 66398U 25257U   25337.15051543  .00052309  00000+0  94164-3 0  9992
2 66398  53.1589 309.6396 0001410  99.6392 260.4777 15.49328167  4895
