CCSDS_OMM_VERS = 2.0
CREATION_DATE  = 
ORIGINATOR     = 

OBJECT_NAME    = STARLINK-35661
OBJECT_ID      = 2025-257H
CENTER_NAME    = EARTH
REF_FRAME      = TEME
TIME_SYSTEM    = UTC
MEAN_ELEMENT_THEORY = SGP/SGP4

EPOCH          = 2025-12-03T04:00:01.998720
MEAN_MOTION    = 15.44211001
ECCENTRICITY   = .0001121
INCLINATION    = 53.1594
RA_OF_ASC_NODE = 309.6212
ARG_OF_PERICENTER = 88.6668
MEAN_ANOMALY   = 334.0602

EPHEMERIS_TYPE = 0
CLASSIFICATION_TYPE = U
NORAD_CAT_ID   = 66387
ELEMENT_SET_NO = 999
REV_AT_EPOCH   = 495
BSTAR          = -.50032E-1
MEAN_MOTION_DOT = -.207159E-1
MEAN_MOTION_DDOT = 0

CCSDS_OMM_VERS = 2.0
CREATION_DATE  = 
ORIGINATOR     = 

OBJECT_NAME    = STARLINK-35647
OBJECT_ID      = 2025-257J
CENTER_NAME    = EARTH
REF_FRAME      = TEME
TIME_SYSTEM    = UTC
MEAN_ELEMENT_THEORY = SGP/SGP4

EPOCH          = 2025-12-03T04:00:01.998720
MEAN_MOTION    = 15.47060620
ECCENTRICITY   = .0001027
INCLINATION    = 53.1590
RA_OF_ASC_NODE = 309.6003
ARG_OF_PERICENTER = 85.5140
MEAN_ANOMALY   = 347.4982

EPHEMERIS_TYPE = 0
CLASSIFICATION_TYPE = U
NORAD_CAT_ID   = 66388
ELEMENT_SET_NO = 999
REV_AT_EPOCH   = 495
BSTAR          = -.45463E-1
MEAN_MOTION_DOT = -.2076863E-1
MEAN_MOTION_DDOT = 0

CCSDS_OMM_VERS = 2.0
CREATION_DATE  = 
ORIGINATOR     = 

OBJECT_NAME    = STARLINK-35694
OBJECT_ID      = 2025-257K
CENTER_NAME    = EARTH
REF_FRAME      = TEME
TIME_SYSTEM    = UTC
MEAN_ELEMENT_THEORY = SGP/SGP4

EPOCH          = 2025-12-03T03:40:10.970400
MEAN_MOTION    = 15.49284998
ECCENTRICITY   = .0001704
INCLINATION    = 53.1590
RA_OF_ASC_NODE = 309.6562
ARG_OF_PERICENTER = 84.6284
MEAN_ANOMALY   = 275.4919

EPHEMERIS_TYPE = 0
CLASSIFICATION_TYPE = U
NORAD_CAT_ID   = 66389
ELEMENT_SET_NO = 999
REV_AT_EPOCH   = 489
BSTAR          = .7044E-3
MEAN_MOTION_DOT = .3889E-3
MEAN_MOTION_DDOT = 0

CCSDS_OMM_VERS = 2.0
CREATION_DATE  = 
ORIGINATOR     = 

OBJECT_NAME    = STARLINK-35665
OBJECT_ID      = 2025-257L
CENTER_NAME    = EARTH
REF_FRAME      = TEME
TIME_SYSTEM    = UTC
MEAN_ELEMENT_THEORY = SGP/SGP4

EPOCH          = 2025-12-03T03:31:18.139872
MEAN_MOTION    = 15.49342842
ECCENTRICITY   = .0001364
INCLINATION    = 53.1588
RA_OF_ASC_NODE = 309.6142
ARG_OF_PERICENTER = 93.2305
MEAN_ANOMALY   = 266.8860

EPHEMERIS_TYPE = 0
CLASSIFICATION_TYPE = U
NORAD_CAT_ID   = 66390
ELEMENT_SET_NO = 999
REV_AT_EPOCH   = 499
BSTAR          = .1874E-2
MEAN_MOTION_DOT = .105316E-2
MEAN_MOTION_DDOT = 0

CCSDS_OMM_VERS = 2.0
CREATION_DATE  = 
ORIGINATOR     = 

OBJECT_NAME    = STARLINK-35656
OBJECT_ID      = 2025-257M
CENTER_NAME    = EARTH
REF_FRAME      = TEME
TIME_SYSTEM    = UTC
MEAN_ELEMENT_THEORY = SGP/SGP4

EPOCH          = 2025-12-03T04:00:01.998720
MEAN_MOTION    = 15.39591037
ECCENTRICITY   = .000154
INCLINATION    = 53.1592
RA_OF_ASC_NODE = 309.4906
ARG_OF_PERICENTER = 68.1110
MEAN_ANOMALY   = 52.6811

EPHEMERIS_TYPE = 0
CLASSIFICATION_TYPE = U
NORAD_CAT_ID   = 66391
ELEMENT_SET_NO = 999
REV_AT_EPOCH   = 505
BSTAR          = .72848E-3
MEAN_MOTION_DOT = .28821E-3
MEAN_MOTION_DDOT = 0

CCSDS_OMM_VERS = 2.0
CREATION_DATE  = 
ORIGINATOR     = 

OBJECT_NAME    = STARLINK-35671
OBJECT_ID      = 2025-257N
CENTER_NAME    = EARTH
REF_FRAME      = TEME
TIME_SYSTEM    = UTC
MEAN_ELEMENT_THEORY = SGP/SGP4

EPOCH          = 2025-12-03T04:00:01.998720
MEAN_MOTION    = 15.46556095
ECCENTRICITY   = .0001073
INCLINATION    = 53.1591
RA_OF_ASC_NODE = 309.5898
ARG_OF_PERICENTER = 86.9853
MEAN_ANOMALY   = 350.7579

EPHEMERIS_TYPE = 0
CLASSIFICATION_TYPE = U
NORAD_CAT_ID   = 66392
ELEMENT_SET_NO = 999
REV_AT_EPOCH   = 495
BSTAR          = -.46326E-1
MEAN_MOTION_DOT = -.207909E-1
MEAN_MOTION_DDOT = 0

CCSDS_OMM_VERS = 2.0
CREATION_DATE  = 
ORIGINATOR     = 

OBJECT_NAME    = STARLINK-35652
OBJECT_ID      = 2025-257P
CENTER_NAME    = EARTH
REF_FRAME      = TEME
TIME_SYSTEM    = UTC
MEAN_ELEMENT_THEORY = SGP/SGP4

EPOCH          = 2025-12-03T03:39:42.611328
MEAN_MOTION    = 15.49331008
ECCENTRICITY   = .0001591
INCLINATION    = 53.1590
RA_OF_ASC_NODE = 309.6544
ARG_OF_PERICENTER = 102.8578
MEAN_ANOMALY   = 257.2609

EPHEMERIS_TYPE = 0
CLASSIFICATION_TYPE = U
NORAD_CAT_ID   = 66393
ELEMENT_SET_NO = 999
REV_AT_EPOCH   = 489
BSTAR          = .96331E-3
MEAN_MOTION_DOT = .53537E-3
MEAN_MOTION_DDOT = 0

CCSDS_OMM_VERS = 2.0
CREATION_DATE  = 
ORIGINATOR     = 

OBJECT_NAME    = STARLINK-35672
OBJECT_ID      = 2025-257Q
CENTER_NAME    = EARTH
REF_FRAME      = TEME
TIME_SYSTEM    = UTC
MEAN_ELEMENT_THEORY = SGP/SGP4

EPOCH          = 2025-12-03T03:38:43.306368
MEAN_MOTION    = 15.49341907
ECCENTRICITY   = .0001486
INCLINATION    = 53.1589
RA_OF_ASC_NODE = 309.6496
ARG_OF_PERICENTER = 92.0913
MEAN_ANOMALY   = 268.0267

EPHEMERIS_TYPE = 0
CLASSIFICATION_TYPE = U
NORAD_CAT_ID   = 66394
ELEMENT_SET_NO = 999
REV_AT_EPOCH   = 489
BSTAR          = .17137E-2
MEAN_MOTION_DOT = .96155E-3
MEAN_MOTION_DDOT = 0

CCSDS_OMM_VERS = 2.0
CREATION_DATE  = 
ORIGINATOR     = 

OBJECT_NAME    = STARLINK-35681
OBJECT_ID      = 2025-257R
CENTER_NAME    = EARTH
REF_FRAME      = TEME
TIME_SYSTEM    = UTC
MEAN_ELEMENT_THEORY = SGP/SGP4

EPOCH          = 2025-12-03T03:38:13.552800
MEAN_MOTION    = 15.49328325
ECCENTRICITY   = .0001517
INCLINATION    = 53.1589
RA_OF_ASC_NODE = 309.6475
ARG_OF_PERICENTER = 102.6084
MEAN_ANOMALY   = 257.5095

EPHEMERIS_TYPE = 0
CLASSIFICATION_TYPE = U
NORAD_CAT_ID   = 66395
ELEMENT_SET_NO = 999
REV_AT_EPOCH   = 482
BSTAR          = .92905E-3
MEAN_MOTION_DOT = .51599E-3
MEAN_MOTION_DDOT = 0

CCSDS_OMM_VERS = 2.0
CREATION_DATE  = 
ORIGINATOR     = 

OBJECT_NAME    = STARLINK-35669
OBJECT_ID      = 2025-257S
CENTER_NAME    = EARTH
REF_FRAME      = TEME
TIME_SYSTEM    = UTC
MEAN_ELEMENT_THEORY = SGP/SGP4

EPOCH          = 2025-12-03T03:37:43.782816
MEAN_MOTION    = 15.49348555
ECCENTRICITY   = .0001476
INCLINATION    = 53.1587
RA_OF_ASC_NODE = 309.6446
ARG_OF_PERICENTER = 99.5284
MEAN_ANOMALY   = 260.5892

EPHEMERIS_TYPE = 0
CLASSIFICATION_TYPE = U
NORAD_CAT_ID   = 66396
ELEMENT_SET_NO = 999
REV_AT_EPOCH   = 489
BSTAR          = .88926E-3
MEAN_MOTION_DOT = .49392E-3
MEAN_MOTION_DDOT = 0

CCSDS_OMM_VERS = 2.0
CREATION_DATE  = 
ORIGINATOR     = 

OBJECT_NAME    = STARLINK-35510
OBJECT_ID      = 2025-257T
CENTER_NAME    = EARTH
REF_FRAME      = TEME
TIME_SYSTEM    = UTC
MEAN_ELEMENT_THEORY = SGP/SGP4

EPOCH          = 2025-12-03T03:37:14.265984
MEAN_MOTION    = 15.49336637
ECCENTRICITY   = .0001238
INCLINATION    = 53.1586
RA_OF_ASC_NODE = 309.6426
ARG_OF_PERICENTER = 90.4961
MEAN_ANOMALY   = 269.6190

EPHEMERIS_TYPE = 0
CLASSIFICATION_TYPE = U
NORAD_CAT_ID   = 66397
ELEMENT_SET_NO = 999
REV_AT_EPOCH   = 489
BSTAR          = .16293E-2
MEAN_MOTION_DOT = .9132E-3
MEAN_MOTION_DDOT = 0

CCSDS_OMM_VERS = 2.0
CREATION_DATE  = 
ORIGINATOR     = 

OBJECT_NAME    = STARLINK-35642
OBJECT_ID      = 2025-257U
CENTER_NAME    = EARTH
REF_FRAME      = TEME
TIME_SYSTEM    = UTC
MEAN_ELEMENT_THEORY = SGP/SGP4

EPOCH          = 2025-12-03T03:36:44.533152
MEAN_MOTION    = 15.49328167
ECCENTRICITY   = .000141
INCLINATION    = 53.1589
RA_OF_ASC_NODE = 309.6396
ARG_OF_PERICENTER = 99.6392
MEAN_ANOMALY   = 260.4777

EPHEMERIS_TYPE = 0
CLASSIFICATION_TYPE = U
NORAD_CAT_ID   = 66398
ELEMENT_SET_NO = 999
REV_AT_EPOCH   = 489
BSTAR          = .94164E-3
MEAN_MOTION_DOT = .52309E-3
MEAN_MOTION_DDOT = 0

